[{"OBJECT_NAME":"YAOGAN-40 03A","OBJECT_ID":"2025-199A","EPOCH":"2026-03-09T23:03:31.278816","MEAN_MOTION":14.26419606,"ECCENTRICITY":0.00148498,"INCLINATION":85.9829,"RA_OF_ASC_NODE":86.7514,"ARG_OF_PERICENTER":35.6299,"MEAN_ANOMALY":324.588,"EPHEMERIS_TYPE":0,"CLASSIFICATION_TYPE":"U","NORAD_CAT_ID":65544,"ELEMENT_SET_NO":999,"REV_AT_EPOCH":2627,"BSTAR":0.00017546994,"MEAN_MOTION_DOT":4.42e-6,"MEAN_MOTION_DDOT":0},{"OBJECT_NAME":"CZ-6A DEB","OBJECT_ID":"2024-140ADP","EPOCH":"2026-03-09T14:02:48.489216","MEAN_MOTION":14.21120184,"ECCENTRICITY":0.0038542,"INCLINATION":89.0295,"RA_OF_ASC_NODE":288.0737,"ARG_OF_PERICENTER":144.7067,"MEAN_ANOMALY":215.6687,"EPHEMERIS_TYPE":0,"CLASSIFICATION_TYPE":"U","NORAD_CAT_ID":63392,"ELEMENT_SET_NO":999,"REV_AT_EPOCH":7980,"BSTAR":0.00018757,"MEAN_MOTION_DOT":4.25e-6,"MEAN_MOTION_DDOT":0}]
